CCSDS_OMM_VERS = 2.0
CREATION_DATE  = 
ORIGINATOR     = 

OBJECT_NAME    = ALOS-2
OBJECT_ID      = 2014-029A
CENTER_NAME    = EARTH
REF_FRAME      = TEME
TIME_SYSTEM    = UTC
MEAN_ELEMENT_THEORY = SGP/SGP4

EPOCH          = 2026-03-18T07:23:22.071840
MEAN_MOTION    = 14.79538206
ECCENTRICITY   = .0001471
INCLINATION    = 97.9196
RA_OF_ASC_NODE = 175.7801
ARG_OF_PERICENTER = 94.1747
MEAN_ANOMALY   = 265.9633

EPHEMERIS_TYPE = 0
CLASSIFICATION_TYPE = U
NORAD_CAT_ID   = 39766
ELEMENT_SET_NO = 999
REV_AT_EPOCH   = 63814
BSTAR          = .20823625E-3
MEAN_MOTION_DOT = .1506E-4
MEAN_MOTION_DDOT = 0

CCSDS_OMM_VERS = 2.0
CREATION_DATE  = 
ORIGINATOR     = 

OBJECT_NAME    = YAOGAN-29
OBJECT_ID      = 2015-069A
CENTER_NAME    = EARTH
REF_FRAME      = TEME
TIME_SYSTEM    = UTC
MEAN_ELEMENT_THEORY = SGP/SGP4

EPOCH          = 2026-03-18T07:06:09.132192
MEAN_MOTION    = 14.83005082
ECCENTRICITY   = .0001324
INCLINATION    = 98.0133
RA_OF_ASC_NODE = 105.7482
ARG_OF_PERICENTER = 22.8227
MEAN_ANOMALY   = 337.3045

EPHEMERIS_TYPE = 0
CLASSIFICATION_TYPE = U
NORAD_CAT_ID   = 41038
ELEMENT_SET_NO = 999
REV_AT_EPOCH   = 55715
BSTAR          = .73198283E-4
MEAN_MOTION_DOT = .541E-5
MEAN_MOTION_DDOT = 0

CCSDS_OMM_VERS = 2.0
CREATION_DATE  = 
ORIGINATOR     = 

OBJECT_NAME    = ASTRO-H (HITOMI)
OBJECT_ID      = 2016-012A
CENTER_NAME    = EARTH
REF_FRAME      = TEME
TIME_SYSTEM    = UTC
MEAN_ELEMENT_THEORY = SGP/SGP4

EPOCH          = 2026-03-17T19:56:11.298048
MEAN_MOTION    = 15.10059012
ECCENTRICITY   = .00096392
INCLINATION    = 30.9997
RA_OF_ASC_NODE = 304.0110
ARG_OF_PERICENTER = 52.6877
MEAN_ANOMALY   = 307.4639

EPHEMERIS_TYPE = 0
CLASSIFICATION_TYPE = U
NORAD_CAT_ID   = 41337
ELEMENT_SET_NO = 999
REV_AT_EPOCH   = 55346
BSTAR          = .14225452E-3
MEAN_MOTION_DOT = .2469E-4
MEAN_MOTION_DDOT = 0

CCSDS_OMM_VERS = 2.0
CREATION_DATE  = 
ORIGINATOR     = 

OBJECT_NAME    = HXMT (HUIYAN)
OBJECT_ID      = 2017-034A
CENTER_NAME    = EARTH
REF_FRAME      = TEME
TIME_SYSTEM    = UTC
MEAN_ELEMENT_THEORY = SGP/SGP4

EPOCH          = 2026-03-18T03:16:56.693856
MEAN_MOTION    = 15.17580990
ECCENTRICITY   = .0033126
INCLINATION    = 43.0155
RA_OF_ASC_NODE = 329.7085
ARG_OF_PERICENTER = 287.3391
MEAN_ANOMALY   = 72.3835

EPHEMERIS_TYPE = 0
CLASSIFICATION_TYPE = U
NORAD_CAT_ID   = 42758
ELEMENT_SET_NO = 999
REV_AT_EPOCH   = 48382
BSTAR          = .21636238E-3
MEAN_MOTION_DOT = .4246E-4
MEAN_MOTION_DDOT = 0

CCSDS_OMM_VERS = 2.0
CREATION_DATE  = 
ORIGINATOR     = 

OBJECT_NAME    = SAOCOM 1A
OBJECT_ID      = 2018-076A
CENTER_NAME    = EARTH
REF_FRAME      = TEME
TIME_SYSTEM    = UTC
MEAN_ELEMENT_THEORY = SGP/SGP4

EPOCH          = 2026-03-18T06:24:15.287904
MEAN_MOTION    = 14.82148516
ECCENTRICITY   = .00014406
INCLINATION    = 97.8893
RA_OF_ASC_NODE = 265.3181
ARG_OF_PERICENTER = 88.3154
MEAN_ANOMALY   = 271.8224

EPHEMERIS_TYPE = 0
CLASSIFICATION_TYPE = U
NORAD_CAT_ID   = 43641
ELEMENT_SET_NO = 999
REV_AT_EPOCH   = 40263
BSTAR          = .27683469E-4
MEAN_MOTION_DOT = .168E-5
MEAN_MOTION_DDOT = 0

CCSDS_OMM_VERS = 2.0
CREATION_DATE  = 
ORIGINATOR     = 

OBJECT_NAME    = H-2A R/B
OBJECT_ID      = 2018-084L
CENTER_NAME    = EARTH
REF_FRAME      = TEME
TIME_SYSTEM    = UTC
MEAN_ELEMENT_THEORY = SGP/SGP4

EPOCH          = 2026-03-18T02:33:05.453568
MEAN_MOTION    = 15.41704637
ECCENTRICITY   = .00247426
INCLINATION    = 98.8721
RA_OF_ASC_NODE = 296.2957
ARG_OF_PERICENTER = 356.4623
MEAN_ANOMALY   = 3.6440

EPHEMERIS_TYPE = 0
CLASSIFICATION_TYPE = U
NORAD_CAT_ID   = 43682
ELEMENT_SET_NO = 999
REV_AT_EPOCH   = 40707
BSTAR          = .3479529E-3
MEAN_MOTION_DOT = .14743E-3
MEAN_MOTION_DDOT = 0

CCSDS_OMM_VERS = 2.0
CREATION_DATE  = 
ORIGINATOR     = 

OBJECT_NAME    = SAOCOM 1B
OBJECT_ID      = 2020-059A
CENTER_NAME    = EARTH
REF_FRAME      = TEME
TIME_SYSTEM    = UTC
MEAN_ELEMENT_THEORY = SGP/SGP4

EPOCH          = 2026-03-14T01:04:39.385920
MEAN_MOTION    = 14.82151938
ECCENTRICITY   = .00013837
INCLINATION    = 97.8899
RA_OF_ASC_NODE = 260.2532
ARG_OF_PERICENTER = 84.3427
MEAN_ANOMALY   = 275.7944

EPHEMERIS_TYPE = 0
CLASSIFICATION_TYPE = U
NORAD_CAT_ID   = 46265
ELEMENT_SET_NO = 999
REV_AT_EPOCH   = 29939
BSTAR          = .26755151E-4
MEAN_MOTION_DOT = .161E-5
MEAN_MOTION_DDOT = 0

CCSDS_OMM_VERS = 2.0
CREATION_DATE  = 
ORIGINATOR     = 

OBJECT_NAME    = CSS (TIANHE)
OBJECT_ID      = 2021-035A
CENTER_NAME    = EARTH
REF_FRAME      = TEME
TIME_SYSTEM    = UTC
MEAN_ELEMENT_THEORY = SGP/SGP4

EPOCH          = 2026-03-18T03:52:08.500800
MEAN_MOTION    = 15.61122200
ECCENTRICITY   = .00059985
INCLINATION    = 41.4669
RA_OF_ASC_NODE = 156.5982
ARG_OF_PERICENTER = 324.6627
MEAN_ANOMALY   = 35.3814

EPHEMERIS_TYPE = 0
CLASSIFICATION_TYPE = U
NORAD_CAT_ID   = 48274
ELEMENT_SET_NO = 999
REV_AT_EPOCH   = 27893
BSTAR          = .25475668E-3
MEAN_MOTION_DOT = .21858E-3
MEAN_MOTION_DDOT = 0

CCSDS_OMM_VERS = 2.0
CREATION_DATE  = 
ORIGINATOR     = 

OBJECT_NAME    = COSMOS 2550
OBJECT_ID      = 2021-056A
CENTER_NAME    = EARTH
REF_FRAME      = TEME
TIME_SYSTEM    = UTC
MEAN_ELEMENT_THEORY = SGP/SGP4

EPOCH          = 2026-03-17T03:31:02.671680
MEAN_MOTION    = 15.33878800
ECCENTRICITY   = .00082971
INCLINATION    = 67.1448
RA_OF_ASC_NODE = 18.3252
ARG_OF_PERICENTER = 268.8880
MEAN_ANOMALY   = 91.1323

EPHEMERIS_TYPE = 0
CLASSIFICATION_TYPE = U
NORAD_CAT_ID   = 48865
ELEMENT_SET_NO = 999
REV_AT_EPOCH   = 26460
BSTAR          = -.379957E-6
MEAN_MOTION_DOT = -.204E-5
MEAN_MOTION_DDOT = 0

CCSDS_OMM_VERS = 2.0
CREATION_DATE  = 
ORIGINATOR     = 

OBJECT_NAME    = CZ-2C R/B
OBJECT_ID      = 2022-058K
CENTER_NAME    = EARTH
REF_FRAME      = TEME
TIME_SYSTEM    = UTC
MEAN_ELEMENT_THEORY = SGP/SGP4

EPOCH          = 2026-03-18T06:06:06.367968
MEAN_MOTION    = 15.54843940
ECCENTRICITY   = .00419064
INCLINATION    = 50.1878
RA_OF_ASC_NODE = 274.2128
ARG_OF_PERICENTER = 237.3535
MEAN_ANOMALY   = 122.3390

EPHEMERIS_TYPE = 0
CLASSIFICATION_TYPE = U
NORAD_CAT_ID   = 52794
ELEMENT_SET_NO = 999
REV_AT_EPOCH   = 21146
BSTAR          = .3809548E-3
MEAN_MOTION_DOT = .26527E-3
MEAN_MOTION_DDOT = 0

CCSDS_OMM_VERS = 2.0
CREATION_DATE  = 
ORIGINATOR     = 

OBJECT_NAME    = CZ-2C R/B
OBJECT_ID      = 2022-132E
CENTER_NAME    = EARTH
REF_FRAME      = TEME
TIME_SYSTEM    = UTC
MEAN_ELEMENT_THEORY = SGP/SGP4

EPOCH          = 2026-03-18T06:35:59.859168
MEAN_MOTION    = 15.62634555
ECCENTRICITY   = .00197426
INCLINATION    = 97.2952
RA_OF_ASC_NODE = 80.8573
ARG_OF_PERICENTER = 64.2408
MEAN_ANOMALY   = 296.0885

EPHEMERIS_TYPE = 0
CLASSIFICATION_TYPE = U
NORAD_CAT_ID   = 54039
ELEMENT_SET_NO = 999
REV_AT_EPOCH   = 19171
BSTAR          = .37926375E-3
MEAN_MOTION_DOT = .34194E-3
MEAN_MOTION_DDOT = 0

CCSDS_OMM_VERS = 2.0
CREATION_DATE  = 
ORIGINATOR     = 

OBJECT_NAME    = GSLV R/B
OBJECT_ID      = 2022-138AN
CENTER_NAME    = EARTH
REF_FRAME      = TEME
TIME_SYSTEM    = UTC
MEAN_ELEMENT_THEORY = SGP/SGP4

EPOCH          = 2026-03-18T06:40:32.261952
MEAN_MOTION    = 14.96833849
ECCENTRICITY   = .00238527
INCLINATION    = 87.3876
RA_OF_ASC_NODE = 163.4879
ARG_OF_PERICENTER = 118.0656
MEAN_ANOMALY   = 242.2992

EPHEMERIS_TYPE = 0
CLASSIFICATION_TYPE = U
NORAD_CAT_ID   = 54149
ELEMENT_SET_NO = 999
REV_AT_EPOCH   = 18521
BSTAR          = .18616497E-3
MEAN_MOTION_DOT = .2173E-4
MEAN_MOTION_DDOT = 0

